STARLINK-36889          
1 68006U 26039W   26078.25002315 -.01847556  00000+0 -27823-1 0  9991
2 68006  43.0002 356.7873 0001634 269.3078 113.6863 15.57274448  4413
STARLINK-36592          
1 68007U 26039X   26078.25002315 -.01847847  00000+0 -23511-1 0  9995
2 68007  42.9998 356.5659 0001365 274.5878 197.6024 15.61651696  4413
STARLINK-36911          
1 68008U 26039Y   26078.25002315 -.01837405  00000+0 -24775-1 0  9998
2 68008  42.9999 356.6227 0001463 272.5010 176.7007 15.60143914  4419
STARLINK-36956          
1 68009U 26039Z   26078.25002315 -.01846007  00000+0 -26031-1 0  9994
2 68009  42.9998 356.6670 0001506 273.8323 157.4270 15.58997505  4418
STARLINK-36953          
1 68010U 26039AA  26078.25002315 -.01869151  00000+0 -19665-1 0  9996
2 68010  43.0000 356.3387 0001076 263.7369 299.3497 15.66442147  4411
STARLINK-36991          
1 68011U 26039AB  26078.25002315  .00101133  00000+0  17118-2 0  9995
2 68011  43.0001 357.2675 0002183 253.3166 294.2713 15.50506958  4412
STARLINK-36936          
1 68012U 26039AC  26078.25002315 -.01844893  00000+0 -26230-1 0  9990
2 68012  42.9997 356.6233 0001644 268.9356 179.3289 15.58778900  4419
STARLINK-36967          
1 68013U 26039AD  26078.25002315  .00125552  00000+0  21167-2 0  9997
2 68013  43.0000 357.1947 0001544 279.0475 298.5125 15.50513150  4418
STARLINK-36985          
1 68014U 26039AE  26078.25002315 -.01874358  00000+0 -19333-1 0  9997
2 68014  43.0000 356.3009 0001171 263.3539 314.7323 15.66932903  4411
STARLINK-36335          
1 68015U 26040A   26078.25002315 -.00352916  00000+0 -19065-2 0  9993
2 68015  97.2753  27.1515 0001584 127.4068  81.6732 15.80935392  3917
STARLINK-36923          
1 68016U 26040B   26078.25002315 -.01165610  00000+0 -67000-2 0  9990
2 68016  97.2757  27.1561 0000723 120.7559  96.7831 15.81185323  3962
STARLINK-36568          
1 68017U 26040C   26078.25002315 -.01263387  00000+0 -73314-2 0  9996
2 68017  97.2754  27.1574 0000774  93.6436 128.1830 15.81196756  3963
