CCSDS_OMM_VERS = 2.0
CREATION_DATE  = 
ORIGINATOR     = 

OBJECT_NAME    = STARLINK-36889
OBJECT_ID      = 2026-039W
CENTER_NAME    = EARTH
REF_FRAME      = TEME
TIME_SYSTEM    = UTC
MEAN_ELEMENT_THEORY = SGP/SGP4

EPOCH          = 2026-03-19T06:00:02.000160
MEAN_MOTION    = 15.57274448
ECCENTRICITY   = .00016349
INCLINATION    = 43.0002
RA_OF_ASC_NODE = 356.7873
ARG_OF_PERICENTER = 269.3078
MEAN_ANOMALY   = 113.6863

EPHEMERIS_TYPE = 0
CLASSIFICATION_TYPE = U
NORAD_CAT_ID   = 68006
ELEMENT_SET_NO = 999
REV_AT_EPOCH   = 441
BSTAR          = -.27822641E-1
MEAN_MOTION_DOT = -.1847556E-1
MEAN_MOTION_DDOT = 0

CCSDS_OMM_VERS = 2.0
CREATION_DATE  = 
ORIGINATOR     = 

OBJECT_NAME    = STARLINK-36592
OBJECT_ID      = 2026-039X
CENTER_NAME    = EARTH
REF_FRAME      = TEME
TIME_SYSTEM    = UTC
MEAN_ELEMENT_THEORY = SGP/SGP4

EPOCH          = 2026-03-19T06:00:02.000160
MEAN_MOTION    = 15.61651696
ECCENTRICITY   = .00013658
INCLINATION    = 42.9998
RA_OF_ASC_NODE = 356.5659
ARG_OF_PERICENTER = 274.5878
MEAN_ANOMALY   = 197.6024

EPHEMERIS_TYPE = 0
CLASSIFICATION_TYPE = U
NORAD_CAT_ID   = 68007
ELEMENT_SET_NO = 999
REV_AT_EPOCH   = 441
BSTAR          = -.23511224E-1
MEAN_MOTION_DOT = -.1847847E-1
MEAN_MOTION_DDOT = 0

CCSDS_OMM_VERS = 2.0
CREATION_DATE  = 
ORIGINATOR     = 

OBJECT_NAME    = STARLINK-36911
OBJECT_ID      = 2026-039Y
CENTER_NAME    = EARTH
REF_FRAME      = TEME
TIME_SYSTEM    = UTC
MEAN_ELEMENT_THEORY = SGP/SGP4

EPOCH          = 2026-03-19T06:00:02.000160
MEAN_MOTION    = 15.60143914
ECCENTRICITY   = .00014638
INCLINATION    = 42.9999
RA_OF_ASC_NODE = 356.6227
ARG_OF_PERICENTER = 272.5010
MEAN_ANOMALY   = 176.7007

EPHEMERIS_TYPE = 0
CLASSIFICATION_TYPE = U
NORAD_CAT_ID   = 68008
ELEMENT_SET_NO = 999
REV_AT_EPOCH   = 441
BSTAR          = -.24774616E-1
MEAN_MOTION_DOT = -.1837405E-1
MEAN_MOTION_DDOT = 0

CCSDS_OMM_VERS = 2.0
CREATION_DATE  = 
ORIGINATOR     = 

OBJECT_NAME    = STARLINK-36956
OBJECT_ID      = 2026-039Z
CENTER_NAME    = EARTH
REF_FRAME      = TEME
TIME_SYSTEM    = UTC
MEAN_ELEMENT_THEORY = SGP/SGP4

EPOCH          = 2026-03-19T06:00:02.000160
MEAN_MOTION    = 15.58997505
ECCENTRICITY   = .00015061
INCLINATION    = 42.9998
RA_OF_ASC_NODE = 356.6670
ARG_OF_PERICENTER = 273.8323
MEAN_ANOMALY   = 157.4270

EPHEMERIS_TYPE = 0
CLASSIFICATION_TYPE = U
NORAD_CAT_ID   = 68009
ELEMENT_SET_NO = 999
REV_AT_EPOCH   = 441
BSTAR          = -.26030548E-1
MEAN_MOTION_DOT = -.1846007E-1
MEAN_MOTION_DDOT = 0

CCSDS_OMM_VERS = 2.0
CREATION_DATE  = 
ORIGINATOR     = 

OBJECT_NAME    = STARLINK-36953
OBJECT_ID      = 2026-039AA
CENTER_NAME    = EARTH
REF_FRAME      = TEME
TIME_SYSTEM    = UTC
MEAN_ELEMENT_THEORY = SGP/SGP4

EPOCH          = 2026-03-19T06:00:02.000160
MEAN_MOTION    = 15.66442147
ECCENTRICITY   = .0001076
INCLINATION    = 43.0000
RA_OF_ASC_NODE = 356.3387
ARG_OF_PERICENTER = 263.7369
MEAN_ANOMALY   = 299.3497

EPHEMERIS_TYPE = 0
CLASSIFICATION_TYPE = U
NORAD_CAT_ID   = 68010
ELEMENT_SET_NO = 999
REV_AT_EPOCH   = 441
BSTAR          = -.19664684E-1
MEAN_MOTION_DOT = -.1869151E-1
MEAN_MOTION_DDOT = 0

CCSDS_OMM_VERS = 2.0
CREATION_DATE  = 
ORIGINATOR     = 

OBJECT_NAME    = STARLINK-36991
OBJECT_ID      = 2026-039AB
CENTER_NAME    = EARTH
REF_FRAME      = TEME
TIME_SYSTEM    = UTC
MEAN_ELEMENT_THEORY = SGP/SGP4

EPOCH          = 2026-03-19T06:00:02.000160
MEAN_MOTION    = 15.50506958
ECCENTRICITY   = .00021835
INCLINATION    = 43.0001
RA_OF_ASC_NODE = 357.2675
ARG_OF_PERICENTER = 253.3166
MEAN_ANOMALY   = 294.2713

EPHEMERIS_TYPE = 0
CLASSIFICATION_TYPE = U
NORAD_CAT_ID   = 68011
ELEMENT_SET_NO = 999
REV_AT_EPOCH   = 441
BSTAR          = .17118391E-2
MEAN_MOTION_DOT = .101133E-2
MEAN_MOTION_DDOT = 0

CCSDS_OMM_VERS = 2.0
CREATION_DATE  = 
ORIGINATOR     = 

OBJECT_NAME    = STARLINK-36936
OBJECT_ID      = 2026-039AC
CENTER_NAME    = EARTH
REF_FRAME      = TEME
TIME_SYSTEM    = UTC
MEAN_ELEMENT_THEORY = SGP/SGP4

EPOCH          = 2026-03-19T06:00:02.000160
MEAN_MOTION    = 15.58778900
ECCENTRICITY   = .00016443
INCLINATION    = 42.9997
RA_OF_ASC_NODE = 356.6233
ARG_OF_PERICENTER = 268.9356
MEAN_ANOMALY   = 179.3289

EPHEMERIS_TYPE = 0
CLASSIFICATION_TYPE = U
NORAD_CAT_ID   = 68012
ELEMENT_SET_NO = 999
REV_AT_EPOCH   = 441
BSTAR          = -.262304E-1
MEAN_MOTION_DOT = -.1844893E-1
MEAN_MOTION_DDOT = 0

CCSDS_OMM_VERS = 2.0
CREATION_DATE  = 
ORIGINATOR     = 

OBJECT_NAME    = STARLINK-36967
OBJECT_ID      = 2026-039AD
CENTER_NAME    = EARTH
REF_FRAME      = TEME
TIME_SYSTEM    = UTC
MEAN_ELEMENT_THEORY = SGP/SGP4

EPOCH          = 2026-03-19T06:00:02.000160
MEAN_MOTION    = 15.50513150
ECCENTRICITY   = .00015442
INCLINATION    = 43.0000
RA_OF_ASC_NODE = 357.1947
ARG_OF_PERICENTER = 279.0475
MEAN_ANOMALY   = 298.5125

EPHEMERIS_TYPE = 0
CLASSIFICATION_TYPE = U
NORAD_CAT_ID   = 68013
ELEMENT_SET_NO = 999
REV_AT_EPOCH   = 441
BSTAR          = .21167245E-2
MEAN_MOTION_DOT = .125552E-2
MEAN_MOTION_DDOT = 0

CCSDS_OMM_VERS = 2.0
CREATION_DATE  = 
ORIGINATOR     = 

OBJECT_NAME    = STARLINK-36985
OBJECT_ID      = 2026-039AE
CENTER_NAME    = EARTH
REF_FRAME      = TEME
TIME_SYSTEM    = UTC
MEAN_ELEMENT_THEORY = SGP/SGP4

EPOCH          = 2026-03-19T06:00:02.000160
MEAN_MOTION    = 15.66932903
ECCENTRICITY   = .00011715
INCLINATION    = 43.0000
RA_OF_ASC_NODE = 356.3009
ARG_OF_PERICENTER = 263.3539
MEAN_ANOMALY   = 314.7323

EPHEMERIS_TYPE = 0
CLASSIFICATION_TYPE = U
NORAD_CAT_ID   = 68014
ELEMENT_SET_NO = 999
REV_AT_EPOCH   = 441
BSTAR          = -.19333462E-1
MEAN_MOTION_DOT = -.1874358E-1
MEAN_MOTION_DDOT = 0

CCSDS_OMM_VERS = 2.0
CREATION_DATE  = 
ORIGINATOR     = 

OBJECT_NAME    = STARLINK-36335
OBJECT_ID      = 2026-040A
CENTER_NAME    = EARTH
REF_FRAME      = TEME
TIME_SYSTEM    = UTC
MEAN_ELEMENT_THEORY = SGP/SGP4

EPOCH          = 2026-03-19T06:00:02.000160
MEAN_MOTION    = 15.80935392
ECCENTRICITY   = .00015846
INCLINATION    = 97.2753
RA_OF_ASC_NODE = 27.1515
ARG_OF_PERICENTER = 127.4068
MEAN_ANOMALY   = 81.6732

EPHEMERIS_TYPE = 0
CLASSIFICATION_TYPE = U
NORAD_CAT_ID   = 68015
ELEMENT_SET_NO = 999
REV_AT_EPOCH   = 391
BSTAR          = -.19064978E-2
MEAN_MOTION_DOT = -.352916E-2
MEAN_MOTION_DDOT = 0

CCSDS_OMM_VERS = 2.0
CREATION_DATE  = 
ORIGINATOR     = 

OBJECT_NAME    = STARLINK-36923
OBJECT_ID      = 2026-040B
CENTER_NAME    = EARTH
REF_FRAME      = TEME
TIME_SYSTEM    = UTC
MEAN_ELEMENT_THEORY = SGP/SGP4

EPOCH          = 2026-03-19T06:00:02.000160
MEAN_MOTION    = 15.81185323
ECCENTRICITY   = .00007232
INCLINATION    = 97.2757
RA_OF_ASC_NODE = 27.1561
ARG_OF_PERICENTER = 120.7559
MEAN_ANOMALY   = 96.7831

EPHEMERIS_TYPE = 0
CLASSIFICATION_TYPE = U
NORAD_CAT_ID   = 68016
ELEMENT_SET_NO = 999
REV_AT_EPOCH   = 396
BSTAR          = -.6699987E-2
MEAN_MOTION_DOT = -.116561E-1
MEAN_MOTION_DDOT = 0

CCSDS_OMM_VERS = 2.0
CREATION_DATE  = 
ORIGINATOR     = 

OBJECT_NAME    = STARLINK-36568
OBJECT_ID      = 2026-040C
CENTER_NAME    = EARTH
REF_FRAME      = TEME
TIME_SYSTEM    = UTC
MEAN_ELEMENT_THEORY = SGP/SGP4

EPOCH          = 2026-03-19T06:00:02.000160
MEAN_MOTION    = 15.81196756
ECCENTRICITY   = .0000774
INCLINATION    = 97.2754
RA_OF_ASC_NODE = 27.1574
ARG_OF_PERICENTER = 93.6436
MEAN_ANOMALY   = 128.1830

EPHEMERIS_TYPE = 0
CLASSIFICATION_TYPE = U
NORAD_CAT_ID   = 68017
ELEMENT_SET_NO = 999
REV_AT_EPOCH   = 396
BSTAR          = -.73313687E-2
MEAN_MOTION_DOT = -.1263387E-1
MEAN_MOTION_DDOT = 0

